#dP2019  2 15  0  0  0.00000000      96 __u+U IGS08 FIT  IAC
## 2040 432000.00000000   900.00000000 58529 0.0000000000000
+   96   C01C02C03C04C05C06C07C08C09C10C11C12C13C14C16E01E02
+        E03E04E05E07E08E09E11E12E13E14E15E18E19E21E24E25E26
+        E27E30E31E33E36G01G02G03G04G05G06G07G08G09G10G11G12
+        G13G14G15G16G17G18G19G20G21G22G23G24G25G27G28G29G30
+        G31G32J01J02J03R01R02R03R04R05R07R08R09R10R11R13R14
+        R15R16R17R18R19R20R21R22R23R24R26  0  0  0  0  0  0
++         0 12 14 12 12  0  8  8  8  8  8  7  8  8  8  4  4
++         5  5  4  4  4  5  4  4  4  5  4  4  4  4  4  4  4
++         4  4  5  5  5  3  3  3  3  4  3  3  3  3  3  3  3
++         3  4  3  3  3  3  3  3  3  3  3  3  3  3  3  3  3
++         3  4  9  9 10  5  5  5  5  5  5  5  5  5  5  6  5
++         5  6  5  5  5  5  5  7  5  6  8  0  0  0  0  0  0
%c M  cc GPS ccc cccc cccc cccc cccc ccccc ccccc ccccc ccccc
%c cc cc ccc ccc cccc cccc cccc cccc ccccc ccccc ccccc ccccc
%f  1.2500000  1.025000000  0.00000000000  0.000000000000000
%f  0.0000000  0.000000000  0.00000000000  0.000000000000000
%i    0    0    0    0      0      0      0      0         0
%i    0    0    0    0      0      0      0      0         0
/* INFORMATION & ANALYSIS CENTER (IAC)            FINAL DATA
/* S/V CLOCKS ARE ALIGNED TO GPS & GLONASS TIME RESPECTIVELY
/* USING THE BROADCAST EPHEMERIS                            
/* PCV:IGS14_2038 OL/AL:FES2004  NONE     YN ORB:CoN CLK:CoN
*  2019 02 15  5 15  0.00000000
PC01      0.000000      0.000000      0.000000 999999.999999
PC02   4380.704812  41895.480179   -832.038665   -318.986132
PC03 -14732.793478  39483.106111   -451.690630   -215.360999
PC04 -39651.253745  14382.236931   -345.214316    -55.735194
PC05  21935.338329  35990.585375   -772.877364    -17.772914
PC06 -22450.818656  31392.021158  16862.000809 999999.999999
PC07  -9581.195928  36207.402310  19924.790403    146.228676
PC08 -12538.162122  18386.062487 -35734.576869    111.935969
PC09 -11657.693275  30576.161816  26591.722808    533.077054
PC10    111.445849  41401.019140   9118.865431   -494.915817
PC11  -1904.991915  15697.078783 -22938.360806     -6.380891
PC12 -26173.254129   8276.321386  -5184.535877    422.044531
PC13   1586.525344  24979.129856 -33831.308977   -542.879905
PC14 -10288.655645  25847.127543  -1758.528425    850.961161
PC16 -21730.285205  31538.297463  17439.589039   -215.588973
PE01  -1671.622775  25659.075564  14656.870525   -542.791969
PE02   1636.883898 -25692.597786 -14624.121925     47.620007
PE03  12885.161574 -24798.192734  -9741.738262   -133.735555
PE04   4675.595655  18709.748630  22456.224535   -221.500525
PE05  23026.411637 -16400.045197   8774.731813    107.286172
PE07 -19654.103965  -1553.253192 -22077.124577   -131.919019
PE08  -4813.310238 -18521.271810 -22579.353514   6403.943798
PE09  19561.287957   1311.878810  22175.568362   6527.462525
PE11  28523.274962   7473.837186  -2713.303758   5719.642239
PE12  15230.847326  16263.561503 -19483.346330   6171.467002
PE13 -28498.990846  -7438.446678   2918.343350    382.998364
PE14  -5194.099845  22143.831911 -22119.955908   6444.676362
PE15 -15633.632221 -16061.217815  19346.132310    919.981442
PE18  12967.476930 -16847.715269  12780.030269   5528.972800
PE19 -14365.156999  24613.328876   7990.696564     -8.384732
PE21 -14010.390105   8921.012828  24496.156678   -519.614198
PE24  17944.914445  12463.425470 -19971.986117   6232.475141
PE25  14029.653984  -8878.163905 -24503.733359   1892.884617
PE26 -24840.415058   5408.053828 -15151.518463   4902.083125
PE27 -17946.680130 -12914.789218  19683.997291    528.900662
PE30 -11429.774450 -27054.322864   3740.415096   5105.749208
PE31  11344.487427  27136.149992  -3327.339046    906.281566
PE33  -6401.067734  15309.389261 -24496.228087    847.971996
PE36  24722.076553  -5590.706340  15307.601070    747.392946
PG01  22682.732322  14117.500786    744.031224   -163.520483
PG02  -7207.603749 -18731.743623  18089.353128   -140.211715
PG03  12983.058588  12520.509498  19483.833372    182.990117
PG04  24468.299075 -10123.862387   2057.352822    113.767231
PG05  -2914.909404 -25858.532472  -4861.877708      1.081257
PG06   5451.404103 -14137.994828  21856.192979    275.445930
PG07  22722.306883   3730.871750 -13386.150546     32.290319
PG08  10667.406958  11094.535975 -21619.262327   -132.808778
PG09  24437.494146  -6611.981088   8006.981712    458.366992
PG10 -11337.396709  18523.280096 -15104.451585    116.479356
PG11  22542.878179  10487.657425  -9545.362700   -660.010224
PG12 -10769.321905 -15330.581643  18697.521215    267.840079
PG13  -1757.973931 -15314.991085 -21742.717982    -74.889506
PG14 -13682.874487  17213.597591  15071.695165    -91.372247
PG15 -14193.254810  -9357.959264 -20734.557586   -327.788872
PG16    907.718672  25564.863862  -6408.704055    -19.304970
PG17  20759.560298 -14879.122944   7513.250410      9.985925
PG18  17595.248315  17875.760667  -9430.437319     26.107817
PG19  14894.824877 -16347.868235  14490.347607   -352.334251
PG20 -14491.325512   9334.339991 -20286.500575    522.218849
PG21 -21356.567516    263.930911 -14914.002461   -249.907828
PG22  11355.274946  19293.629323  14565.663918   -645.517281
PG23  20915.624460   2493.753483  16730.472704   -197.195223
PG24 -21519.306073 -15471.962268  -3683.925833    -62.185223
PG25 -14746.113974  -2548.651078  21756.006430   -720.616191
PG27   -416.136581  16206.893184 -21064.614134    -67.935593
PG28  12658.165253 -17071.858774 -15374.717664    764.619942
PG29 -23661.820743   1768.852953  11906.484936    270.221773
PG30  16092.945334  -6557.740458 -20116.146487    -52.927567
PG31  -4522.947969  15016.733677  21381.534915     58.555975
PG32 -18408.459179  16851.686843   8973.714568   -226.141079
PJ01 -21085.806850  33893.597351  -9037.213509   -187.747992
PJ02 -24845.330188  21498.696779  31154.101292     -0.383206
PJ03 -34355.251659  22591.038531  -4788.423395     -0.139930
PR01  -4796.896599 -12767.056725 -21553.424450     39.456884
PR02 -14758.376200   6952.163111 -19554.894593    354.405756
PR03 -14594.805628  20211.314155  -5254.659445     -8.603233
PR04  -5567.806174  21532.186481  12489.016513    295.249786
PR05   5958.068873  10702.378303  22378.167053     22.171565
PR07  14531.349463 -20422.484667   4872.719874    -57.939100
PR08   6143.855944 -21761.797527 -11763.861716     19.067225
PR09  13978.254378   3995.802670 -20965.673845     54.372004
PR10   5469.328238 -11285.979464 -22222.517814     42.084592
PR11  -6920.190156 -22224.202640 -10379.207640    -56.767128
PR13 -14247.649611  -5208.952799  20486.350642    -20.185963
PR14  -5508.181835  11555.151599  22072.613870     35.997748
PR15   6421.987421  21985.705425  11235.426774     99.923871
PR16  15082.755491  19536.391630  -6216.462320     11.041830
PR17 -18491.716477   7242.929200 -16011.164859    204.654348
PR18  -1386.650325  10520.596466 -23172.482306     32.729244
PR19  16241.424350   8446.409788 -17756.653842    -61.206222
PR20  25513.849557    949.711953   -439.380777   -368.854833
PR21  17993.766902  -7397.107157  16493.850285    -31.363327
PR22  -1206.719277 -10504.716073  23220.596477     -4.305930
PR23 -20187.898720  -6590.537794  14126.286221    209.655252
PR24 -25472.215555    244.784136  -1143.420895   -177.199265
PR26  25314.387912   1436.381120  -2667.722314     -3.960117
EOF
